[{"OBJECT_NAME":"STARLINK-1680","OBJECT_ID":"2020-070AC","EPOCH":"2026-03-10T00:00:02.999808","MEAN_MOTION":15.76401356,"ECCENTRICITY":0.00075058,"INCLINATION":53.0447,"RA_OF_ASC_NODE":107.962,"ARG_OF_PERICENTER":15.0582,"MEAN_ANOMALY":219.3714,"EPHEMERIS_TYPE":0,"CLASSIFICATION_TYPE":"U","NORAD_CAT_ID":46558,"ELEMENT_SET_NO":999,"REV_AT_EPOCH":596,"BSTAR":0.0012210481,"MEAN_MOTION_DOT":0.00201352,"MEAN_MOTION_DDOT":0},{"OBJECT_NAME":"STARLINK-36811","OBJECT_ID":"2026-032M","EPOCH":"2026-03-09T22:00:01.999584","MEAN_MOTION":15.7513277,"ECCENTRICITY":0.00015975,"INCLINATION":97.2849,"RA_OF_ASC_NODE":255.486,"ARG_OF_PERICENTER":96.6375,"MEAN_ANOMALY":268.0903,"EPHEMERIS_TYPE":0,"CLASSIFICATION_TYPE":"U","NORAD_CAT_ID":67808,"ELEMENT_SET_NO":999,"REV_AT_EPOCH":481,"BSTAR":0.0010691942,"MEAN_MOTION_DOT":0.00162008,"MEAN_MOTION_DDOT":0}]
